[{"OBJECT_NAME":"STARLINK-1308","OBJECT_ID":"2020-019BM","EPOCH":"2026-03-09T11:44:15.370656","MEAN_MOTION":15.50558102,"ECCENTRICITY":0.00022951,"INCLINATION":53.0542,"RA_OF_ASC_NODE":153.0711,"ARG_OF_PERICENTER":20.5491,"MEAN_ANOMALY":339.561,"EPHEMERIS_TYPE":0,"CLASSIFICATION_TYPE":"U","NORAD_CAT_ID":45419,"ELEMENT_SET_NO":999,"REV_AT_EPOCH":32964,"BSTAR":0.0016250615,"MEAN_MOTION_DOT":0.00095173,"MEAN_MOTION_DDOT":0},{"OBJECT_NAME":"POLYTECH UNIVERSE-5","OBJECT_ID":"2024-199L","EPOCH":"2026-03-09T21:29:23.803296","MEAN_MOTION":15.52287921,"ECCENTRICITY":0.00049026,"INCLINATION":97.3133,"RA_OF_ASC_NODE":304.2615,"ARG_OF_PERICENTER":279.4444,"MEAN_ANOMALY":80.6254,"EPHEMERIS_TYPE":0,"CLASSIFICATION_TYPE":"U","NORAD_CAT_ID":61745,"ELEMENT_SET_NO":999,"REV_AT_EPOCH":12223,"BSTAR":0.00078869438,"MEAN_MOTION_DOT":0.00048079,"MEAN_MOTION_DDOT":0}]
